EUTELSAT 21B            
1 38992U 12062B   25355.48269124  .00000152  00000+0  00000+0 0  9994
2 38992   0.0679 341.9019 0003269 292.8174  10.9451  1.00269505 48049
EUTELSAT 70B            
1 39020U 12069A   25355.49257130 -.00000021  00000+0  00000+0 0  9995
2 39020   0.0616   7.0002 0004253 247.7206  83.4052  1.00271547 47729
EUTELSAT 117 WEST A     
1 39122U 13012A   25355.45543869  .00000010  00000+0  00000+0 0  9997
2 39122   0.0281 305.3560 0002602 328.0329 224.0594  1.00270479 46656
EUTELSAT 7B             
1 39163U 13022A   25355.33731130  .00000071  00000+0  00000+0 0  9997
2 39163   0.0651   1.3717 0004388 320.8565 256.3575  1.00270971 46164
EXPRESS-AT1             
1 39612U 14010A   25355.48971127  .00000101  00000+0  00000+0 0  9996
2 39612   0.0192 307.9841 0000847 195.1584 179.4626  1.00272675 43034
EXPRESS-AT2             
1 39613U 14010B   25355.14952978 -.00000258  00000+0  00000+0 0  9997
2 39613   0.0190 327.4725 0001060 327.2965 348.8895  1.00270951 42719
EUTELSAT 3B             
1 39773U 14030A   25355.40768507  .00000043  00000+0  00000+0 0  9999
2 39773   0.0611   8.8637 0004144 224.6378   6.5896  1.00272683 42285
EUTELSAT 115 WEST B     
1 40425U 15010B   25355.18719009 -.00000002  00000+0  00000+0 0  9998
2 40425   0.0159 149.3637 0000333 179.3265  73.8064  1.00269059 39605
